NORAD_CAT_ID,OBJECT_NAME,OBJECT_TYPE,EPOCH,MEAN_MOTION,ECCENTRICITY,INCLINATION,RA_OF_ASC_NODE,ARG_OF_PERICENTER,MEAN_ANOMALY,BSTAR,MEAN_MOTION_DOT,MEAN_MOTION_DDOT,TLE_LINE0,TLE_LINE1,TLE_LINE2,SEMIMAJOR_AXIS,PERIOD,APOGEE,PERIGEE,DECAYED
53937.0,STARLINK-4765,PAYLOAD,2022-11-21 22:00:00,15.73208208,0.0004104,53.2136,326.1691,2.1511,292.4823,0.0005446,0.00076564,0.0,0 STARLINK-4765,1 53937U 22119BD  22325.91667824  .00076564  00000-0  54460-3 0  9999,2 53937  53.2136 326.1691 0004104   2.1511 292.4823 15.73208208  1306,6727.871999999999,91.533,352.49800000000016,346.976,0.0
53937.0,STARLINK-4765,PAYLOAD,2022-11-22 14:00:01,15.73219039,0.0004211,53.2128,322.8712,358.8358,113.8064,-0.00045183,-0.00063646,0.0,0 STARLINK-4765,1 53937U 22119BD  22326.58335648 -.00063646  00000-0 -45183-3 0  9990,2 53937  53.2128 322.8712 0004211 358.8358 113.8064 15.73219039  9667,6727.840999999999,91.532,352.539,346.87300000000016,0.0
53937.0,STARLINK-4765,PAYLOAD,2022-11-22 22:00:00,15.73131802,0.0003881,53.2129,321.2197,357.7065,203.8062,0.00061334,0.00086118,0.0,0 STARLINK-4765,1 53937U 22119BD  22326.91667824  .00086118  00000-0  61334-3 0  9994,2 53937  53.2129 321.2197 0003881 357.7065 203.8062 15.73131802  1305,6728.09,91.537,352.566,347.343,0.0
53937.0,STARLINK-4765,PAYLOAD,2022-11-23 06:00:00,15.73203506,0.0004077,53.2131,319.5719,358.6738,291.7223,1.4128e-05,1.359e-05,0.0,0 STARLINK-4765,1 53937U 22119BD  22327.25001157  .00001359  00000-0  14128-4 0  9997,2 53937  53.2131 319.5719 0004077 358.6738 291.7223 15.73203506  9767,6727.885,91.533,352.49300000000005,347.00699999999995,0.0
53937.0,STARLINK-4765,PAYLOAD,2022-11-23 14:00:01,15.73205552,0.0004077,53.2131,317.922,357.4312,21.8991,-0.00020704,-0.00029601,0.0,0 STARLINK-4765,1 53937U 22119BD  22327.58334491 -.00029601  00000-0 -20704-3 0  9991,2 53937  53.2131 317.9220 0004077 357.4312  21.8991 15.73205552  1300,6727.879,91.533,352.487,347.001,0.0
53937.0,STARLINK-4765,PAYLOAD,2022-11-23 22:00:00,15.73194967,0.0003843,53.2133,316.2706,359.7117,108.5427,0.00039059,0.00054557,0.0,0 STARLINK-4765,1 53937U 22119BD  22327.91667824  .00054557  00000-0  39059-3 0  9996,2 53937  53.2133 316.2706 0003843 359.7117 108.5427 15.73194967  1305,6727.91,91.533,352.36,347.189,0.0
53937.0,STARLINK-4765,PAYLOAD,2022-11-24 06:00:02,15.73203997,0.0004135,53.213,314.6228,2.9599,194.3121,-0.0001813,-0.00026008,0.0,0 STARLINK-4765,1 53937U 22119BD  22328.25002315 -.00026008  00000-0 -18130-3 0  9991,2 53937  53.2130 314.6228 0004135   2.9599 194.3121 15.73203997  9923,6727.884,91.533,352.531,346.967,0.0
53937.0,STARLINK-4765,PAYLOAD,2022-11-24 14:00:01,15.73219574,0.0004131,53.2133,312.968,3.0417,283.0747,-0.00059361,-0.00083231,0.0,0 STARLINK-4765,1 53937U 22119BD  22328.58334491 -.00083231  00000-0 -59361-3 0  9992,2 53937  53.2133 312.9680 0004131   3.0417 283.0747 15.73219574  1308,6727.839,91.532,352.4840000000001,346.925,0.0
53937.0,STARLINK-4765,PAYLOAD,2022-11-24 22:00:00,15.73129069,0.0003933,53.2129,311.3216,3.1363,11.899,0.00060374,0.00084737,0.0,0 STARLINK-4765,1 53937U 22119BD  22328.91667824  .00084737  00000-0  60374-3 0  9994,2 53937  53.2129 311.3216 0003933   3.1363  11.8990 15.73129069  1307,6728.097,91.537,352.6090000000001,347.316,0.0
53937.0,STARLINK-4765,PAYLOAD,2022-11-25 06:00:00,15.73181594,0.0004187,53.2131,309.6740000000001,4.2995,99.6167,0.00026272,0.00036394,0.0,0 STARLINK-4765,1 53937U 22119BD  22329.25001157  .00036394  00000-0  26272-3 0  9998,2 53937  53.2131 309.6740 0004187   4.2995  99.6167 15.73181594 10083,6727.948,91.534,352.63,346.996,0.0
53937.0,STARLINK-4765,PAYLOAD,2022-11-25 14:00:01,15.7324446,0.0004167,53.2132,308.0238,4.3734,188.4667,0.00014641,0.0002002,0.0,0 STARLINK-4765,1 53937U 22119BD  22329.58334491  .00020020  00000-0  14641-3 0  9990,2 53937  53.2132 308.0238 0004167   4.3734 188.4667 15.73244460  1308,6727.768,91.531,352.43699999999984,346.83,0.0
53937.0,STARLINK-4765,PAYLOAD,2022-11-25 20:00:01,15.73263327,0.0003967,53.2131,306.7851,4.4227,165.1581,0.00012885,0.00017553,0.0,0 STARLINK-4765,1 53937U 22119BD  22329.83334491  .00017553  00000-0  12885-3 0  9993,2 53937  53.2131 306.7851 0003967   4.4227 165.1581 15.73263327 10173,6727.715,91.529,352.249,346.911,0.0
53937.0,STARLINK-4765,PAYLOAD,2022-11-25 22:00:00,15.73290434,0.0003946,53.2133,306.3727,4.5309,277.2978,-0.00018266,-0.00026292,0.0,0 STARLINK-4765,1 53937U 22119BD  22329.91667824 -.00026292  00000-0 -18266-3 0  9992,2 53937  53.2133 306.3727 0003946   4.5309 277.2978 15.73290434  1301,6727.637,91.528,352.157,346.848,0.0
53937.0,STARLINK-4765,PAYLOAD,2022-11-26 14:00:01,15.73253724,0.0004043,53.2126,303.0744,0.1114,99.7259,-0.00059244,-0.00083188,0.0,0 STARLINK-4765,1 53937U 22119BD  22330.58334491 -.00083188  00000-0 -59244-3 0  9996,2 53937  53.2126 303.0744 0004043   0.1114  99.7259 15.73253724 10299,6727.7419999999975,91.53,352.327,346.88699999999994,0.0
53937.0,STARLINK-4765,PAYLOAD,2022-11-26 22:00:00,15.73198777,0.000376,53.2129,301.4237,2.0863,186.7044,-0.00013505,-0.0001954,0.0,0 STARLINK-4765,1 53937U 22119BD  22330.91667824 -.00019540  00000-0 -13505-3 0  9993,2 53937  53.2129 301.4237 0003760   2.0863 186.7044 15.73198777  1305,6727.899,91.533,352.293,347.2340000000001,0.0
53937.0,STARLINK-4765,PAYLOAD,2022-11-27 06:00:00,15.73155698,0.0004065,53.213,299.7762,3.5487,274.1636,-6.2398e-06,-1.499e-05,0.0,0 STARLINK-4765,1 53937U 22119BD  22331.25001157 -.00001499  00000-0 -62398-5 0  9992,2 53937  53.2130 299.7762 0004065   3.5487 274.1636 15.73155698 10399,6728.021,91.536,352.621,347.152,0.0
53937.0,STARLINK-4765,PAYLOAD,2022-11-27 14:00:01,15.73144735,0.0003998,53.213,298.1258,4.8985,1.6876,-0.00016192,-0.00023243,0.0,0 STARLINK-4765,1 53937U 22119BD  22331.58334491 -.00023243  00000-0 -16192-3 0  9998,2 53937  53.2130 298.1258 0003998   4.8985   1.6876 15.73144735  1303,6728.053000000001,91.536,352.608,347.228,0.0
53937.0,STARLINK-4765,PAYLOAD,2022-11-27 22:00:00,15.73142465,0.000387,53.2131,296.4754,8.7188,86.7162,0.00048839,0.00068332,0.0,0 STARLINK-4765,1 53937U 22119BD  22331.91667824  .00068332  00000-0  48839-3 0  9993,2 53937  53.2131 296.4754 0003870   8.7188  86.7162 15.73142465  1303,6728.059,91.537,352.528,347.32,0.0
53937.0,STARLINK-4765,PAYLOAD,2022-11-28 06:00:00,15.73185405,0.000412,53.2126,294.828,8.7202,175.6062,0.00034442,0.00047979,0.0,0 STARLINK-4765,1 53937U 22119BD  22332.25001157  .00047979  00000-0  34442-3 0  9991,2 53937  53.2126 294.8280 0004120   8.7202 175.6062 15.73185405 10554,6727.937,91.534,352.574,347.03,0.0
53937.0,STARLINK-4765,PAYLOAD,2022-11-28 22:00:01,15.73199735,0.0003766,53.2123,291.5269,7.5138,354.7395,0.00046682,0.00065424,0.0,0 STARLINK-4765,1 53937U 22119BD  22332.91668981  .00065424  00000-0  46682-3 0  9992,2 53937  53.2123 291.5269 0003766   7.5138 354.7395 15.73199735 10653,6727.896,91.533,352.295,347.227,0.0
53937.0,STARLINK-4765,PAYLOAD,2022-11-29 14:00:01,15.73224715,0.0003898,53.2123,288.2282,2.4463,177.7378,-0.00035101,-0.00049672,0.0,0 STARLINK-4765,1 53937U 22119BD  22333.58335648 -.00049672  00000-0 -35101-3 0  9990,2 53937  53.2123 288.2282 0003898   2.4463 177.7378 15.73224715 10765,6727.825,91.532,352.31199999999984,347.06699999999995,0.0
53937.0,STARLINK-4765,PAYLOAD,2022-11-29 22:00:00,15.73229947,0.0003751,53.2123,286.578,2.484,266.5561,-4.8638e-05,-7.456e-05,0.0,0 STARLINK-4765,1 53937U 22119BD  22333.91667824 -.00007456  00000-0 -48638-4 0  9995,2 53937  53.2123 286.5780 0003751   2.4840 266.5561 15.73229947 10815,6727.81,91.531,352.1980000000001,347.151,0.0
53937.0,STARLINK-4765,PAYLOAD,2022-11-30 14:00:01,15.73179802,0.0003825,53.2117,283.2782,4.2553,82.7545,7.6677e-05,0.00010145,0.0,0 STARLINK-4765,1 53937U 22119BD  22334.58335648  .00010145  00000-0  76677-4 0  9996,2 53937  53.2117 283.2782 0003825   4.2553  82.7545 15.73179802 10923,6727.953,91.534,352.391,347.244,0.0
53937.0,STARLINK-4765,PAYLOAD,2022-11-30 22:00:00,15.73264424,0.0003694,53.2141,281.6184,4.7005,171.1415,-0.00093858,-0.00130743,0.0,0 STARLINK-4765,1 53937U 22119BD  22334.91667824 -.00130743  00000-0 -93858-3 0  9995,2 53937  53.2141 281.6184 0003694   4.7005 171.1415 15.73264424  1305,6727.712,91.529,352.06199999999984,347.091,0.0
53937.0,STARLINK-4765,PAYLOAD,2022-12-01 14:00:01,15.73210532,0.0003736,53.2117,278.3297,2.0586,351.7007,-2.5943e-06,-9.89e-06,0.0,0 STARLINK-4765,1 53937U 22119BD  22335.58334491 -.00000989  00000-0 -25943-5 0  9990,2 53937  53.2117 278.3297 0003736   2.0586 351.7007 15.73210532  1302,6727.865,91.533,352.244,347.217,0.0
53937.0,STARLINK-4765,PAYLOAD,2022-12-01 20:00:01,15.73212174,0.000369,53.2117,277.0917,2.2386,328.2867,0.00045543,0.00063834,0.0,0 STARLINK-4765,1 53937U 22119BD  22335.83335648  .00063834  00000-0  45543-3 0  9995,2 53937  53.2117 277.0917 0003690   2.2386 328.2867 15.73212174 11113,6727.86,91.532,352.208,347.24300000000005,0.0
53937.0,STARLINK-4765,PAYLOAD,2022-12-01 22:00:00,15.73255879,0.0003773,53.2117,276.6797,8.4823,74.22399999999998,-0.00042295,-0.00059731,0.0,0 STARLINK-4765,1 53937U 22119BD  22335.91667824 -.00059731  00000-0 -42295-3 0  9992,2 53937  53.2117 276.6797 0003773   8.4823  74.2240 15.73255879  1302,6727.736,91.53,352.139,347.06199999999984,0.0
53937.0,STARLINK-4765,PAYLOAD,2022-12-02 06:00:00,15.73272079,0.000405,53.2114,275.0317,7.7072,164.0519,0.00064821,0.00091664,0.0,0 STARLINK-4765,1 53937U 22119BD  22336.25001157  .00091664  00000-0  64821-3 0  9999,2 53937  53.2114 275.0317 0004050   7.7072 164.0519 15.73272079 11182,6727.69,91.529,352.279,346.83,0.0
53937.0,STARLINK-4765,PAYLOAD,2022-12-02 14:00:01,15.7321557,0.0003767,53.2112,273.3801,6.114,254.5198,-8.449799999999999e-05,-0.00012478,0.0,0 STARLINK-4765,1 53937U 22119BD  22336.58334491 -.00012478  00000-0 -84498-4 0  9996,2 53937  53.2112 273.3801 0003767   6.1140 254.5198 15.73215570 11239,6727.851,91.532,352.25,347.181,0.0
